BEESAT-4                
1 41619U 16040W   23016.10112375  .00061240  00000+0  15512-2 0  9992
2 41619  97.1884  66.6842 0008912  74.5685 285.6546 15.39476697353337
CAS-2T & KS-1Q          
1 41847U 16066G   23015.79694131  .00001774  00000+0  27611-3 0  9992
2 41847  98.5257  85.0001 0361139 294.4368  61.9544 14.39029861324882
NAYIF-1 (EO-88)         
1 42017U 17008BX  23016.16241194  .00076857  00000+0  16193-2 0  9994
2 42017  97.2416  85.0864 0003292 186.6256 173.4950 15.44977821329782
ZHUHAI-1 02 (CAS-4B)    
1 42759U 17034B   23016.13157323  .00009380  00000+0  51850-3 0  9990
2 42759  43.0164 238.8850 0010409 204.9028 302.0621 15.14011878308562
ZHUHAI-1 01 (CAS-4A)    
1 42761U 17034D   23015.95502009  .00009270  00000+0  51132-3 0  9998
2 42761  43.0158 238.4877 0010313 206.3404 290.3052 15.14100751308545
MAX VALIER SAT          
1 42778U 17036P   23015.90511704  .00033245  00000+0  10855-2 0  9990
2 42778  97.1803  54.9328 0007982 293.6856  66.3548 15.31658215309364
RADFXSAT (FOX-1B)       
1 43017U 17073E   23015.95379295  .00011189  00000+0  81610-3 0  9991
2 43017  97.6513 266.3834 0241137 210.5970 148.0995 14.83411482278595
FOX-1D (AO-92)          
1 43137U 18004AC  23015.74709729  .00032717  00000+0  96115-3 0  9991
2 43137  97.3479  94.4373 0006531 338.5214  21.5754 15.35039859278841
DIWATA-2B               
1 43678U 18084H   23016.12779924  .00001795  00000+0  17989-3 0  9990
2 43678  97.9968 157.3469 0008825 310.2848  49.7661 14.92650831229579
ES'HAIL 2               
1 43700U 18090A   23015.87549924  .00000166  00000+0  00000+0 0  9992
2 43700   0.0247  55.1448 0001883 295.9192 104.9619  1.00269605 15165
FOX-1CLIFF (AO-95)      
1 43770U 18099N   23016.15041334  .00009067  00000+0  77579-3 0  9990
2 43770  97.5964  81.8272 0012467 284.7297  75.2544 14.97760130224834
ITASAT 1                
1 43786U 18099AE  23016.13342730  .00009679  00000+0  82847-3 0  9992
2 43786  97.5996  82.8266 0012484 275.2613  84.7185 14.97729223224874
JY1SAT (JO-97)          
1 43803U 18099AX  23015.72943776  .00009125  00000+0  76573-3 0  9998
2 43803  97.5952  82.2838 0012092 274.4738  85.5104 14.98518901224846
UWE-4                   
1 43880U 18111E   23015.70334997  .00009176  00000+0  74586-3 0  9993
2 43880  97.6610 283.3257 0011938 341.2433  18.8349 14.99752141221490
NEXUS (FO-99)           
1 43937U 19003F   23016.01873475  .00049044  00000+0  13113-2 0  9997
2 43937  97.1095  46.6708 0019175 108.6005 251.7325 15.37721971222557
PSAT2 (NO-104)          
1 44354U 19036R   23015.94112694  .00387415  43642-4  10777-2 0  9991
2 44354  28.5161 110.0834 0092725 263.4430  95.5618 15.85357702197799
JAISAT-1                
1 44419U 19038F   23015.92233195  .00032015  00000+0  13977-2 0  9997
2 44419  97.6612 353.6677 0019588 113.2086 247.1215 15.21891878195315
DUCHIFAT-3              
1 44854U 19089C   23015.94013765  .00009521  00000+0  69805-3 0  9995
2 44854  36.9633 279.0803 0005207 160.4271 300.4207 15.03045108169897
CAS-6 (TIANQIN 1)       
1 44881U 19093C   23016.27917173  .00001452  00000+0  18924-3 0  9994
2 44881  97.8762  97.2756 0014069 208.8603 151.1853 14.82042700166295
RS-44 & BREEZE-KM R/B   
1 44909U 19096E   23015.68989569  .00000001  00000+0 -43200-4 0  9996
2 44909  82.5207  89.2826 0217567 183.2414 176.7292 12.79717700142651
ORBITAL FACTORY 2 (OF-2)
1 45113U 19071C   23015.89839777  .00178353  00000+0  16899-2 0  9992
2 45113  51.6319  82.5894 0005633 271.5972  88.4378 15.65820240166382
HUSKYSAT-1 (HO-107)     
1 45119U 19071J   23015.79569621  .00108017  00000+0  12427-2 0  9998
2 45119  51.6331  86.3715 0005971 254.7447 105.2887 15.61142896166317
BY70-2                  
1 45857U 20042B   23016.27941674  .00024929  00000+0  30264-2 0  9991
2 45857  97.9399  96.3763 0010584 142.2923 217.9113 14.83475483136968
SALSAT                  
1 46495U 20068K   23015.85157536  .00009393  00000+0  65093-3 0  9994
2 46495  97.7539 322.6284 0014391 278.6873  81.2723 15.05771224126136
BY70-3                  
1 46839U 20079N   23016.18651542  .00121767  00000+0  15949-2 0  9995
2 46839  97.1728  92.0109 0003688 282.3052 136.3471 15.58170328123151
RADFXSAT-2 (AO-109)     
1 47311U 21002C   23015.91610576  .00034892  00000+0  11660-2 0  9998
2 47311  60.6838 280.0529 0038370  99.2732 261.2701 15.30113420110919
UVSQ-SAT                
1 47438U 21006AB  23015.67464227  .00017788  00000+0  85335-3 0  9991
2 47438  97.4103  75.3762 0009595 255.8646 104.1523 15.18902156109459
DIY-1 (ARDUIQUBE)       
1 47963U 21022AH  23015.68761046  .00063905  00000+0  26297-2 0  9995
2 47963  97.5159 280.5758 0015942 112.9122 247.3799 15.23775924 99139
XW-3 (CAS-9)            
1 50466U 21131B   23016.28747569  .00000968  00000+0  33045-3 0  9999
2 50466  98.5649  98.2743 0003999 223.1343 136.9531 14.38628437 55515
TEVEL-3                 
1 50988U 22002E   23016.22664918  .00019289  00000+0  94237-3 0  9992
2 50988  97.4562  84.8187 0010171  49.8235 345.0772 15.18246536 55652
TEVEL-8                 
1 50989U 22002F   23016.11245661  .00018905  00000+0  92552-3 0  9993
2 50989  97.4580  84.7466 0009762  51.5528  10.3387 15.18182269 55635
TEVEL-5                 
1 50998U 22002Q   23016.24780078  .00019742  00000+0  94811-3 0  9993
2 50998  97.4548  85.0737 0011184  45.0616  26.8007 15.18829031 55671
TEVEL-6                 
1 50999U 22002R   23016.24683066  .00019939  00000+0  95720-3 0  9991
2 50999  97.4544  85.0697 0011331  44.7306  27.8599 15.18837773 55678
TEVEL-1                 
1 51013U 22002AF  23016.23957631  .00019265  00000+0  94210-3 0  9995
2 51013  97.4548  84.7914 0009817  47.5626  24.8443 15.18216799 55652
TEVEL-7                 
1 51062U 22002CG  23016.24799235  .00019279  00000+0  94341-3 0  9994
2 51062  97.4568  84.8601 0009807  48.4151  22.6687 15.18192226 55658
TEVEL-4                 
1 51063U 22002CH  23016.18185480  .00018879  00000+0  92468-3 0  9992
2 51063  97.4577  84.7875 0009834  48.6925   8.6197 15.18164377 55647
TEVEL-2                 
1 51069U 22002CP  23016.23534043  .00019360  00000+0  94590-3 0  9991
2 51069  97.4553  84.8042 0009979  48.5304  23.7376 15.18245118 55655
GREENCUBE               
1 53106U 22080B   22354.08419093 -.00000003  00000+0  00000+0 0  9999
2 53106  70.1702  21.9397 0008914 226.9685 182.2049  6.42557326 10248
YUZGU 9 (RS3S)          
1 53308U 98067TT  23016.18901435  .00771391  25145-3  24164-2 0  9999
2 53308  51.6295 345.3772 0005765 100.6633 259.5022 15.90854215 27972
YUZGU 7 (RS1S)          
1 53309U 98067TU  23016.19602107  .00921897  38073-3  24786-2 0  9997
2 53309  51.6275 344.6533 0006051 102.7025 257.4659 15.93799209 27938
YUZGU 11 (RS5S)         
1 53310U 98067TV  23016.18270435  .00829936  29561-3  25044-2 0  9994
2 53310  51.6308 345.3364 0005356  99.4059 260.7553 15.91589464 27953
YUZGU 12 (RS6S)         
1 53311U 98067TW  23016.19728390  .01170902  68287-3  25744-2 0  9992
2 53311  51.6250 343.8950 0006264 112.6983 247.4688 15.97567726 27995
TSIOLKOVSKY-RYAZAN 1 (*)
1 53312U 98067TX  23016.15045491  .00862178  32421-3  24819-2 0  9998
2 53312  51.6283 345.1083 0005942 101.5191 258.6483 15.92494064 27912
TSIOLKOVSKY-RYAZAN 2 (*)
1 53313U 98067TY  23016.20452870  .00872666  33435-3  24622-2 0  9999
2 53313  51.6291 344.7261 0006248 102.2368 257.9339 15.92875149 27974
YUZGU 10 (RS4S)         
1 53321U 98067TZ  23016.16665824  .00808953  28071-3  24228-2 0  9998
2 53321  51.6316 345.2269 0005683 100.9920 259.1726 15.91729397 27961
RS29S (SXC3-2110 CYCLO*)
1 53373U 22096D   23016.09651726  .00027350  00000+0  97503-3 0  9991
2 53373  97.4277 281.6802 0002304  41.9190  65.4126 15.28874489 24375
RS32S (SXC3-212 MONITO*)
1 53374U 22096E   23016.09043021  .00024722  00000+0  88459-3 0  9995
2 53374  97.4266 281.6835 0001669  47.6952  67.6356 15.28775979 24375
RS34S (SXC3-218 KUZBAS*)
1 53375U 22096F   23016.24869381  .00022050  00000+0  80325-3 0  9994
2 53375  97.4271 281.7874 0001964  36.6260  87.1006 15.28210693 24392
RS23S (SXC3-21 UTMN)    
1 53376U 22096G   23016.24263365  .00023164  00000+0  83979-3 0  9990
2 53376  97.4276 281.7969 0001917  44.8712  79.5054 15.28357785 24396
RS28S (SXC3-214 MIET-A*)
1 53377U 22096H   23016.04876279  .00021658  00000+0  78915-3 0  9993
2 53377  97.4274 281.6001 0001949  32.0173  94.0801 15.28206643 24361
RS26S (KAI-1)           
1 53378U 22096J   23016.06130843  .00018664  00000+0  68800-3 0  9991
2 53378  97.4270 281.5808 0001404  42.5629  84.0695 15.27855243 24365
RS19S (SXC3-219 ISOI)   
1 53381U 22096M   23016.13109318  .00021782  00000+0  78067-3 0  9997
2 53381  97.4275 281.7949 0002182 225.9660 270.3432 15.28747356 24385
RS21S (CUBESX-HSE-2)    
1 53383U 22096P   23016.25393097  .00022605  00000+0  80765-3 0  9994
2 53383  97.4275 281.9339 0002102 224.7068 255.3456 15.28841822 24408
RS30S (SXC3-217 SIREN)  
1 53384U 22096Q   23016.19966089  .00020168  00000+0  72761-3 0  9994
2 53384  97.4283 281.8567 0002479 226.6437 262.5509 15.28546565 24391
RS20S (GEOSCAN-EDELVEIS)
1 53385U 22096R   23016.19450874  .00028305  00000+0  97706-3 0  9992
2 53385  97.4272 281.9992 0002565 218.7485 244.7707 15.29919597 24431
RS33S (SXC3-215 VIZARD) 
1 53386U 22096S   23016.33610928  .00045049  00000+0  14974-2 0  9996
2 53386  97.4268 282.2829 0003139 224.6889 275.1444 15.31040978 24451
CAS-5A (FO-118)         
1 54684U 22167C   23016.07058123  .00014011  00000+0  87682-3 0  9993
2 54684  97.5397 155.4164 0015245 135.1934 348.4327 15.09416089  5692
CAS-10                  
1 54816U 21035C   23016.25019060  .00213457  00000+0  18681-2 0  9997
2 54816  41.4772   1.1998 0003041  91.3086 268.8103 15.67415159  4448
